COSMOS 2433 (720)       
1 32275U 07052A   25037.37895720 -.00000082  00000+0  00000+0 0  9990
2 32275  65.8381 332.5713 0003710 275.1911  84.7773  2.13103848134535
COSMOS 2432 (719)       
1 32276U 07052B   25037.60977215 -.00000083  00000+0  00000+0 0  9998
2 32276  65.8533 332.6818 0011658 324.6497 157.8895  2.13103102134531
COSMOS 2434 (721)       
1 32393U 07065A   25038.29351352  .00000091  00000+0  00000+0 0  9994
2 32393  64.3181 208.6166 0004802  74.1465 159.2425  2.13101272133223
COSMOS 2436 (723)       
1 32395U 07065C   25036.21035024  .00000106  00000+0  00000+0 0  9998
2 32395  64.3266 208.7541 0017479   9.6423 200.0193  2.13100082133144
COSMOS 2456 (730)       
1 36111U 09070A   25038.35537170 -.00000013  00000+0  00000+0 0  9990
2 36111  64.7270  87.8903 0005433 298.8763 137.0286  2.13103543117887
COSMOS 2457 (733)       
1 36112U 09070B   25036.30341479 -.00000015  00000+0  00000+0 0  9991
2 36112  64.7106  87.8145 0003611 185.8938 247.8001  2.13100951117840
COSMOS 2460 (732)       
1 36402U 10007C   25037.39489076 -.00000081  00000+0  00000+0 0  9994
2 36402  65.6898 331.1950 0002235 329.7690 216.2651  2.13106053116258
COSMOS 2476 (744)       
1 37867U 11064A   25038.36407356 -.00000013  00000+0  00000+0 0  9998
2 37867  64.9954  89.6121 0024707 238.9493 114.5640  2.13101469103210
COSMOS 2477 (745)       
1 37868U 11064B   25036.36529088 -.00000016  00000+0  00000+0 0  9997
2 37868  65.0010  89.7547 0021852 239.9674 199.4423  2.13102846103175
COSMOS 2475 (743)       
1 37869U 11064C   25038.23033918 -.00000014  00000+0  00000+0 0  9996
2 37869  65.0091  89.7085 0027117 253.3075 134.2335  2.13101535103226
COSMOS 2485 (747)       
1 39155U 13019A   25038.31326551 -.00000013  00000+0  00000+0 0  9994
2 39155  65.1505  90.2466 0025043 235.0027 124.8288  2.13104329 91735
COSMOS 2492 (754)       
1 39620U 14012A   25038.26923054 -.00000085  00000+0  00000+0 0  9999
2 39620  65.5694 330.7084 0014499 321.6428  38.2653  2.13103081 84698
COSMOS 2500 (755)       
1 40001U 14032A   25038.44548202 -.00000085  00000+0  00000+0 0  9994
2 40001  65.5059 330.4892 0005661 219.3375 140.6329  2.13106070 82919
COSMOS 2501 (702K)      
1 40315U 14075A   25034.47800247  .00000100  00000+0  00000+0 0  9995
2 40315  63.6184 207.6434 0019247 203.6429 156.2623  2.13101261 79220
COSMOS 2514 (751)       
1 41330U 16008A   25038.21533549 -.00000084  00000+0  00000+0 0  9997
2 41330  65.2988 329.9469 0009774 220.8071 139.1322  2.13102513 70073
COSMOS 2522 (752)       
1 42939U 17055A   25038.05469265  .00000094  00000+0  00000+0 0  9991
2 42939  64.0801 208.7450 0005941 225.9279 134.0203  2.13101793 57427
COSMOS 2527 (756)       
1 43508U 18053A   25037.54521894 -.00000016  00000+0  00000+0 0  9998
2 43508  65.3093  90.4734 0009649 238.5195 121.4519  2.13102188 51719
COSMOS 2529 (757)       
1 43687U 18086A   25038.58209001  .00000088  00000+0  00000+0 0  9998
2 43687  64.2957 209.3030 0006838 257.9829 101.9370  2.13101945 48747
COSMOS 2534 (758)       
1 44299U 19030A   25038.21653785  .00000093  00000+0  00000+0 0  9996
2 44299  64.3689 209.2910 0008983 287.5534 286.1780  2.13102031 44374
COSMOS 2544 (759)       
1 44850U 19088A   25037.95874622 -.00000015  00000+0  00000+0 0  9992
2 44850  65.2966  90.2922 0015198 257.0770 102.8196  2.13101987 40163
COSMOS 2545 (760)       
1 45358U 20018A   25038.15537477 -.00000085  00000+0  00000+0 0  9995
2 45358  64.6373 329.7678 0009685 256.6266 103.2783  2.13102403 38112
COSMOS 2547 (705K)      
1 46805U 20075A   25038.34139702  .00000092  00000+0  00000+0 0  9993
2 46805  64.5984 208.9983 0005853 230.4659 129.4794  2.13102889 33365
COSMOS 2557 (706K)      
1 52984U 22075A   25037.10029016 -.00000081  00000+0  00000+0 0  9998
2 52984  64.5710 331.9131 0013061 284.1286  75.7387  2.13101668 20148
COSMOS 2559 (707K)      
1 54031U 22130A   25036.10537829 -.00000075  00000+0  00000+0 0  9993
2 54031  64.5438 332.0574 0006431 236.4940 123.4590  2.13101095 18095
COSMOS 2564 (761)       
1 54377U 22161A   25034.88723360  .00000104  00000+0  00000+0 0  9992
2 54377  64.7401 209.2603 0008025 204.6811 155.2773  2.13101953 17013
COSMOS 2569 (703K)      
1 57517U 23114A   25038.18758576 -.00000014  00000+0  00000+0 0  9995
2 57517  65.0269  89.3491 0012169 290.7583  69.1783  2.13104086 11711
